COSMOS 2433 (720)       
1 32275U 07052A   23164.91221554 -.00000059  00000+0  00000+0 0  9991
2 32275  66.0412 352.6704 0000871 180.1191 179.9098  2.13104087121636
COSMOS 2432 (719)       
1 32276U 07052B   23166.61698281 -.00000067  00000+0  00000+0 0  9995
2 32276  66.0552 352.7210 0008828 340.9942 194.1875  2.13103355121702
COSMOS 2434 (721)       
1 32393U 07065A   23166.40823543  .00000050  00000+0  00000+0 0  9998
2 32393  64.3390 229.0589 0000975 110.2480 208.3591  2.13103130120374
COSMOS 2436 (723)       
1 32395U 07065C   23166.33639984  .00000050  00000+0  00000+0 0  9996
2 32395  64.3477 229.1222 0015240 354.8363  44.2499  2.13102974120339
COSMOS 2456 (730)       
1 36111U 09070A   23166.36867219 -.00000029  00000+0  00000+0 0  9998
2 36111  64.4633 108.5879 0005281 310.4431 138.1738  2.13099192105036
COSMOS 2457 (733)       
1 36112U 09070B   23166.67866779 -.00000031  00000+0  00000+0 0  9996
2 36112  64.4472 108.4445 0003426 181.0421 275.5461  2.13101355105085
COSMOS 2460 (732)       
1 36402U 10007C   23166.57524227 -.00000067  00000+0  00000+0 0  9997
2 36402  65.9053 351.3443 0002569  80.1481 284.5728  2.13106338103346
COSMOS 2476 (744)       
1 37867U 11064A   23166.77202987 -.00000029  00000+0  00000+0 0  9993
2 37867  64.7451 110.0706 0022868 240.0786  66.6168  2.13101733 90371
COSMOS 2477 (745)       
1 37868U 11064B   23166.37573932 -.00000026  00000+0  00000+0 0  9998
2 37868  64.7525 110.1527 0020165 241.5102 299.0773  2.13101621 90361
COSMOS 2475 (743)       
1 37869U 11064C   23166.42012187 -.00000026  00000+0  00000+0 0  9995
2 37869  64.7596 110.1627 0025004 256.7663 276.2358  2.13101989 90372
COSMOS 2485 (747)       
1 39155U 13019A   23166.31409329 -.00000025  00000+0  00000+0 0  9992
2 39155  64.9060 110.5925 0023181 236.0816 123.6651  2.13101897 78881
COSMOS 2492 (754)       
1 39620U 14012A   23166.26970076 -.00000066  00000+0  00000+0 0  9994
2 39620  65.7897 350.9845 0011590 332.5076  27.4551  2.13103186 71849
COSMOS 2500 (755)       
1 40001U 14032A   23165.98482317 -.00000065  00000+0  00000+0 0  9994
2 40001  65.7281 350.8278 0005621 180.9238 179.0995  2.13106038 70050
COSMOS 2501 (702K)      
1 40315U 14075A   23166.23395343  .00000050  00000+0  00000+0 0  9993
2 40315  63.6430 228.4901 0019794 210.0616 149.9035  2.13101501 66455
COSMOS 2514 (751)       
1 41330U 16008A   23166.21483289 -.00000067  00000+0  00000+0 0  9993
2 41330  65.5259 350.4215 0008920 199.2205 160.7690  2.13102692 57223
COSMOS 2516 (753)       
1 41554U 16032A   23166.33184424  .00000050  00000+0  00000+0 0  9991
2 41554  63.8693 228.8648 0015262 213.9979 145.9833  2.13106501 54832
COSMOS 2522 (752)       
1 42939U 17055A   23166.52639941  .00000051  00000+0  00000+0 0  9996
2 42939  64.1034 229.3595 0009335 240.2683 119.7185  2.13101933 44594
COSMOS 2527 (756)       
1 43508U 18053A   23166.48469322 -.00000026  00000+0  00000+0 0  9990
2 43508  65.0678 110.6625 0008811 240.8439 119.0346  2.13102407 38884
COSMOS 2529 (757)       
1 43687U 18086A   23166.58437705  .00000050  00000+0  00000+0 0  9991
2 43687  64.3186 229.7715 0010854 260.8139  99.1431  2.13102131 35894
COSMOS 2534 (758)       
1 44299U 19030A   23166.37406763  .00000049  00000+0  00000+0 0  9996
2 44299  64.3911 229.6974 0012938 280.8560  52.0725  2.13102144 31525
COSMOS 2544 (759)       
1 44850U 19088A   23166.42833837 -.00000026  00000+0  00000+0 0  9990
2 44850  65.0536 110.5089 0013975 262.0193  97.7890  2.13102185 27327
COSMOS 2545 (760)       
1 45358U 20018A   23166.15598886 -.00000068  00000+0  00000+0 0  9997
2 45358  64.8660 350.7349 0006799 240.6861 119.2694  2.13102648 25260
COSMOS 2547 (705K)      
1 46805U 20075A   23166.34561516  .00000050  00000+0  00000+0 0  9999
2 46805  64.6180 229.2304 0008205 242.0512 117.9447  2.13103155 20515
COSMOS 2557 (706K)      
1 52984U 22075A   23166.03813749 -.00000068  00000+0  00000+0 0  9990
2 52984  64.7796 352.9069 0010451 284.8317  75.0793  2.13102091  7318
COSMOS 2559 (707K)      
1 54031U 22130A   23166.44908246 -.00000070  00000+0  00000+0 0  9992
2 54031  64.7504 353.0232 0005001 211.5984 148.3978  2.13101309  5291
COSMOS 2564 (761)       
1 54377U 22161A   23166.64291886  .00000052  00000+0  00000+0 0  9995
2 54377  64.7585 229.2589 0010566 223.3655 136.6317  2.13102159  4245
